0 SBS 4 R/B(PAM-D)
1 15245U 84093F   13282.34959862  .00001307  00000-0  80251-3 0  5506
2 15245 022.4935 215.4768 6963793 283.9659 345.9126 02.65493951263591
0 SBS 4 R/B(PAM-D)
1 15245U 84093F   13283.26783256  .00001148  00000-0  79424-3 0  5514
2 15245 022.4930 215.0528 6963477 284.7086 143.5310 02.65497439263613
0 SBS 4 R/B(PAM-D)
1 15245U 84093F   13285.36379566  .00000793  00000-0  72615-3 0  5523
2 15245 022.4926 214.0842 6962821 286.4066 346.8282 02.65503523263679
0 SBS 4 R/B(PAM-D)
1 15245U 84093F   13286.49044542  .00000829  00000-0  77021-3 0  5538
2 15245 022.4923 213.5645 6962399 287.3183 343.6893 02.65506823263704
0 SBS 4 R/B(PAM-D)
1 15245U 84093F   13288.78140652  .00001097  00000-0  84821-3 0  5546
2 15245 022.4921 212.5098 6961596 289.1695 013.4453 02.65516573263762
0 SBS 4 R/B(PAM-D)
1 15245U 84093F   13289.73974090  .00001220  00000-0  86596-3 0  5553
2 15245 022.4921 212.0697 6961260 289.9407 209.4731 02.65518506263785
0 SBS 4 R/B(PAM-D)
1 15245U 84093F   13292.43993632  .00001317  00000-0  82184-3 0  5564
2 15245 022.4919 210.8296 6960476 292.1149 270.5182 02.65526215263864
0 SBS 4 R/B(PAM-D)
1 15245U 84093F   13294.24947727  .00001218  00000-0  79926-3 0  5570
2 15245 022.4918 209.9980 6959815 293.5718 200.2400 02.65531999263918
0 SBS 4 R/B(PAM-D)
1 15245U 84093F   13294.80876021  .00001267  00000-0  86643-3 0  5589
2 15245 022.4918 209.7413 6959684 294.0234 014.8639 02.65532688263920
0 SBS 4 R/B(PAM-D)
1 15245U 84093F   13296.20751765  .00000916  00000-0  71508-3 0  5597
2 15245 022.4917 209.0992 6959269 295.1480 271.9513 02.65537868263964
